[
  {
    "id": "64b8f2f8b3c5a7298d6e2202",
    "address": "Hooigracht 19",
    "city": "Leiden",
    "postalCode": "2312 KS",
    "transport": "64b8f2f8b3c5a7298d6e2201"
  },
  {
    "id": "64b8f2f8b3c5a7298d6e2204",
    "address": "Jacob van Lennepstraat 24",
    "city": "Amsterdam",
    "postalCode": "1053 HM",
    "transport": "64b8f2f8b3c5a7298d6e2203"
  },
  {
    "id": "64b8f2f8b3c5a7298d6e2206",
    "address": "Prinsengracht 170",
    "city": "Amsterdam",
    "postalCode": "1016 HA",
    "transport": "64b8f2f8b3c5a7298d6e2205"
  },
  {
    "id": "64b8f2f8b3c5a7298d6e2208",
    "address": "Bergselaan 320",
    "city": "Rotterdam",
    "postalCode": "3038 CL",
    "transport": "64b8f2f8b3c5a7298d6e2207"
  },
  {
    "id": "64b8f2f8b3c5a7298d6e2210",
    "address": "Stadhouderskade 25",
    "city": "Amsterdam",
    "postalCode": "1071 ZD",
    "transport": "64b8f2f8b3c5a7298d6e2209"
  },
  {
    "id": "64b8f2f8b3c5a7298d6e2212",
    "address": "Westerstraat 15",
    "city": "Amsterdam",
    "postalCode": "1015 LT",
    "transport": "64b8f2f8b3c5a7298d6e2211"
  },
  {
    "id": "64b8f2f8b3c5a7298d6e2214",
    "address": "Keizersgracht 50",
    "city": "Amsterdam",
    "postalCode": "1015 CR",
    "transport": "64b8f2f8b3c5a7298d6e2213"
  },
  {
    "id": "64b8f2f8b3c5a7298d6e2216",
    "address": "Ceintuurbaan 95",
    "city": "Amsterdam",
    "postalCode": "1072 GA",
    "transport": "64b8f2f8b3c5a7298d6e2215"
  },
  {
    "id": "64b8f2f8b3c5a7298d6e2218",
    "address": "Elandsstraat 190",
    "city": "Amsterdam",
    "postalCode": "1016 SJ",
    "transport": "64b8f2f8b3c5a7298d6e2217"
  },
  {
    "id": "64b8f2f8b3c5a7298d6e2220",
    "address": "Marnixstraat 250",
    "city": "Amsterdam",
    "postalCode": "1016 TL",
    "transport": "64b8f2f8b3c5a7298d6e2219"
  },
  {
    "id": "64b8f2f8b3c5a7298d6e2222",
    "address": "Lange Voorhout 15",
    "city": "Den Haag",
    "postalCode": "2514 EA",
    "transport": "64b8f2f8b3c5a7298d6e2221"
  },
  {
    "id": "64b8f2f8b3c5a7298d6e2224",
    "address": "Voorstraat 30",
    "city": "Utrecht",
    "postalCode": "3512 AR",
    "transport": "64b8f2f8b3c5a7298d6e2223"
  },
  {
    "id": "64b8f2f8b3c5a7298d6e2226",
    "address": "Buitenom 18",
    "city": "Den Haag",
    "postalCode": "2512 XE",
    "transport": "64b8f2f8b3c5a7298d6e2225"
  },
  {
    "id": "64b8f2f8b3c5a7298d6e2228",
    "address": "Nieuwe Binnenweg 100",
    "city": "Rotterdam",
    "postalCode": "3015 BE",
    "transport": "64b8f2f8b3c5a7298d6e2227"
  },
  {
    "id": "64b8f2f8b3c5a7298d6e2230",
    "address": "Lichtstraat 70",
    "city": "Eindhoven",
    "postalCode": "5611 XP",
    "transport": "64b8f2f8b3c5a7298d6e2229"
  },
  {
    "id": "64b8f2f8b3c5a7298d6e2232",
    "address": "Burgemeester van Roijensingel 10",
    "city": "Zwolle",
    "postalCode": "8011 CS",
    "transport": "64b8f2f8b3c5a7298d6e2231"
  },
  {
    "id": "64b8f2f8b3c5a7298d6e2234",
    "address": "Stationsplein 45",
    "city": "Amersfoort",
    "postalCode": "3818 LE",
    "transport": "64b8f2f8b3c5a7298d6e2233"
  },
  {
    "id": "64b8f2f8b3c5a7298d6e2236",
    "address": "Prins Bernhardstraat 80",
    "city": "Den Haag",
    "postalCode": "2517 MJ",
    "transport": "64b8f2f8b3c5a7298d6e2235"
  },
  {
    "id": "64b8f2f8b3c5a7298d6e2238",
    "address": "Europaweg 22",
    "city": "Groningen",
    "postalCode": "9723 AS",
    "transport": "64b8f2f8b3c5a7298d6e2237"
  },
  {
    "id": "64b8f2f8b3c5a7298d6e2240",
    "address": "Achter de Hoven 15",
    "city": "Leeuwarden",
    "postalCode": "8933 CB",
    "transport": "64b8f2f8b3c5a7298d6e2239"
  },
  {
    "id": "64b8f2f8b3c5a7298d6e2242",
    "address": "Zandvoortselaan 130",
    "city": "Zandvoort",
    "postalCode": "2042 XK",
    "transport": "64b8f2f8b3c5a7298d6e2241"
  },
  {
    "id": "64b8f2f8b3c5a7298d6e2244",
    "address": "Kalverstraat 20",
    "city": "Amsterdam",
    "postalCode": "1012 PC",
    "transport": "64b8f2f8b3c5a7298d6e2243"
  },
  {
    "id": "64b8f2f8b3c5a7298d6e2246",
    "address": "Stationsweg 10",
    "city": "Haarlem",
    "postalCode": "2011 AA",
    "transport": "64b8f2f8b3c5a7298d6e2245"
  },
  {
    "id": "64b8f2f8b3c5a7298d6e2248",
    "address": "Wibautstraat 80",
    "city": "Amsterdam",
    "postalCode": "1091 GS",
    "transport": "64b8f2f8b3c5a7298d6e2247"
  }
]
