[
  {
    "id": "64b8f2f8b3c5a7298d6e2152",
    "address": "Keizersgracht 281",
    "city": "Amsterdam",
    "postalCode": "1016 ED",
    "transportId": "64b8f2f8b3c5a7298d6e2151"
  },
  {
    "id": "64b8f2f8b3c5a7298d6e2154",
    "address": "Breestraat 161",
    "city": "Leiden",
    "postalCode": "2311 CM",
    "transportId": "64b8f2f8b3c5a7298d6e2153"
  },
  {
    "id": "64b8f2f8b3c5a7298d6e2156",
    "address": "Lange Voorhout 48",
    "city": "Den Haag",
    "postalCode": "2514 EG",
    "transportId": "64b8f2f8b3c5a7298d6e2155"
  },
  {
    "id": "64b8f2f8b3c5a7298d6e2158",
    "address": "Haarlemmerstraat 2",
    "city": "Amsterdam",
    "postalCode": "1013 ER",
    "transportId": "64b8f2f8b3c5a7298d6e2157"
  },
  {
    "id": "64b8f2f8b3c5a7298d6e2160",
    "address": "Stationsweg 31",
    "city": "Utrecht",
    "postalCode": "3511 EK",
    "transportId": "64b8f2f8b3c5a7298d6e2159"
  },
  {
    "id": "64b8f2f8b3c5a7298d6e2162",
    "address": "Noordeinde 33",
    "city": "Den Haag",
    "postalCode": "2514 GC",
    "transportId": "64b8f2f8b3c5a7298d6e2161"
  },
  {
    "id": "64b8f2f8b3c5a7298d6e2164",
    "address": "Damrak 77",
    "city": "Amsterdam",
    "postalCode": "1012 LM",
    "transportId": "64b8f2f8b3c5a7298d6e2163"
  },
  {
    "id": "64b8f2f8b3c5a7298d6e2166",
    "address": "Kalverstraat 12",
    "city": "Amsterdam",
    "postalCode": "1012 NX",
    "transportId": "64b8f2f8b3c5a7298d6e2165"
  },
  {
    "id": "64b8f2f8b3c5a7298d6e2168",
    "address": "De Passage 13",
    "city": "Den Haag",
    "postalCode": "2511 AE",
    "transportId": "64b8f2f8b3c5a7298d6e2167"
  },
  {
    "id": "64b8f2f8b3c5a7298d6e2170",
    "address": "Markt 3",
    "city": "Delft",
    "postalCode": "2611 GP",
    "transportId": "64b8f2f8b3c5a7298d6e2169"
  },
  {
    "id": "64b8f2f8b3c5a7298d6e2172",
    "address": "Nieuwstraat 47",
    "city": "Utrecht",
    "postalCode": "3512 KM",
    "transportId": "64b8f2f8b3c5a7298d6e2171"
  },
  {
    "id": "64b8f2f8b3c5a7298d6e2174",
    "address": "Kerkstraat 22",
    "city": "Leiden",
    "postalCode": "2312 KG",
    "transportId": "64b8f2f8b3c5a7298d6e2173"
  },
  {
    "id": "64b8f2f8b3c5a7298d6e2176",
    "address": "Grote Markt 12",
    "city": "Haarlem",
    "postalCode": "2011 RD",
    "transportId": "64b8f2f8b3c5a7298d6e2175"
  },
  {
    "id": "64b8f2f8b3c5a7298d6e2178",
    "address": "Lange Vijverberg 8",
    "city": "Den Haag",
    "postalCode": "2513 AC",
    "transportId": "64b8f2f8b3c5a7298d6e2177"
  },
  {
    "id": "64b8f2f8b3c5a7298d6e2180",
    "address": "Van Baerlestraat 35",
    "city": "Amsterdam",
    "postalCode": "1071 AP",
    "transportId": "64b8f2f8b3c5a7298d6e2179"
  },
  {
    "id": "64b8f2f8b3c5a7298d6e2182",
    "address": "Singel 18",
    "city": "Utrecht",
    "postalCode": "3513 BL",
    "transportId": "64b8f2f8b3c5a7298d6e2181"
  },
  {
    "id": "64b8f2f8b3c5a7298d6e2184",
    "address": "Oude Gracht 37",
    "city": "Utrecht",
    "postalCode": "3511 AD",
    "transportId": "64b8f2f8b3c5a7298d6e2183"
  },
  {
    "id": "64b8f2f8b3c5a7298d6e2186",
    "address": "Piet Heinkade 1",
    "city": "Amsterdam",
    "postalCode": "1019 BR",
    "transportId": "64b8f2f8b3c5a7298d6e2185"
  },
  {
    "id": "64b8f2f8b3c5a7298d6e2188",
    "address": "Voorstraat 21",
    "city": "Delft",
    "postalCode": "2611 JS",
    "transportId": "64b8f2f8b3c5a7298d6e2187"
  },
  {
    "id": "64b8f2f8b3c5a7298d6e2190",
    "address": "Raadhuisstraat 6",
    "city": "Amsterdam",
    "postalCode": "1016 DE",
    "transportId": "64b8f2f8b3c5a7298d6e2189"
  },
  {
    "id": "64b8f2f8b3c5a7298d6e2192",
    "address": "Bergstraat 15",
    "city": "Haarlem",
    "postalCode": "2011 AN",
    "transportId": "64b8f2f8b3c5a7298d6e2191"
  },
  {
    "id": "64b8f2f8b3c5a7298d6e2194",
    "address": "Bloemstraat 25",
    "city": "Amsterdam",
    "postalCode": "1016 LA",
    "transportId": "64b8f2f8b3c5a7298d6e2193"
  },
  {
    "id": "64b8f2f8b3c5a7298d6e2196",
    "address": "Heemstraat 32",
    "city": "Den Haag",
    "postalCode": "2512 JN",
    "transportId": "64b8f2f8b3c5a7298d6e2195"
  },
  {
    "id": "64b8f2f8b3c5a7298d6e2198",
    "address": "Sint Jacobsstraat 9",
    "city": "Utrecht",
    "postalCode": "3511 BP",
    "transportId": "64b8f2f8b3c5a7298d6e2197"
  },
  {
    "id": "64b8f2f8b3c5a7298d6e2200",
    "address": "Geldersekade 4",
    "city": "Amsterdam",
    "postalCode": "1011 EK",
    "transportId": "64b8f2f8b3c5a7298d6e2199"
  }
]
